[{"OBJECT_NAME":"STARLINK-31630","OBJECT_ID":"2024-050T","EPOCH":"2026-03-09T13:39:04.940352","MEAN_MOTION":15.30200807,"ECCENTRICITY":0.0001409,"INCLINATION":53.16,"RA_OF_ASC_NODE":168.5079,"ARG_OF_PERICENTER":92.3163,"MEAN_ANOMALY":267.7999,"EPHEMERIS_TYPE":0,"CLASSIFICATION_TYPE":"U","NORAD_CAT_ID":59271,"ELEMENT_SET_NO":999,"REV_AT_EPOCH":11071,"BSTAR":-5.7526e-5,"MEAN_MOTION_DOT":-2.063e-5,"MEAN_MOTION_DDOT":0},{"OBJECT_NAME":"STARLINK-32471","OBJECT_ID":"2024-210K","EPOCH":"2026-03-09T07:15:12.207168","MEAN_MOTION":15.27553156,"ECCENTRICITY":0.00027202,"INCLINATION":42.9997,"RA_OF_ASC_NODE":174.8458,"ARG_OF_PERICENTER":301.3663,"MEAN_ANOMALY":58.6923,"EPHEMERIS_TYPE":0,"CLASSIFICATION_TYPE":"U","NORAD_CAT_ID":61968,"ELEMENT_SET_NO":999,"REV_AT_EPOCH":7494,"BSTAR":0.0012878556,"MEAN_MOTION_DOT":0.0003532,"MEAN_MOTION_DDOT":0}]
